[{"OBJECT_NAME":"STARLINK-2542","OBJECT_ID":"2021-036S","EPOCH":"2026-03-09T23:25:40.269792","MEAN_MOTION":15.30185509,"ECCENTRICITY":0.00015112,"INCLINATION":53.1596,"RA_OF_ASC_NODE":73.9422,"ARG_OF_PERICENTER":92.3546,"MEAN_ANOMALY":267.7628,"EPHEMERIS_TYPE":0,"CLASSIFICATION_TYPE":"U","NORAD_CAT_ID":48292,"ELEMENT_SET_NO":999,"REV_AT_EPOCH":26845,"BSTAR":5.147429e-6,"MEAN_MOTION_DOT":-2.07e-6,"MEAN_MOTION_DDOT":0},{"OBJECT_NAME":"CZ-4C R\/B","OBJECT_ID":"2018-031F","EPOCH":"2026-03-09T18:17:36.260736","MEAN_MOTION":15.22605712,"ECCENTRICITY":0.00804945,"INCLINATION":98.1311,"RA_OF_ASC_NODE":341.6719,"ARG_OF_PERICENTER":21.712,"MEAN_ANOMALY":338.7495,"EPHEMERIS_TYPE":0,"CLASSIFICATION_TYPE":"U","NORAD_CAT_ID":43264,"ELEMENT_SET_NO":999,"REV_AT_EPOCH":43612,"BSTAR":0.00044368098,"MEAN_MOTION_DOT":0.00011203,"MEAN_MOTION_DDOT":0}]
